{
  "type": "FeatureCollection",
  "features": [
    {
      "type": "Feature",
      "geometry": {
        "type": "Point",
        "coordinates": [
          -87.9887,
          41.9307
        ]
      },
      "properties": {
        "id": "R1",
        "name": "Addison Ice Arena",
        "short_name": "Addison",
        "address": "475 S Grace St, Addison, IL 60101",
        "type": "rink"
      }
    },
    {
      "type": "Feature",
      "geometry": {
        "type": "Point",
        "coordinates": [
          -88.228,
          41.8048
        ]
      },
      "properties": {
        "id": "R2",
        "name": "All Seasons Ice Rinks",
        "short_name": "All Seasons",
        "address": "31W330 N Aurora Rd, Naperville, IL 60563",
        "type": "rink"
      }
    },
    {
      "type": "Feature",
      "geometry": {
        "type": "Point",
        "coordinates": [
          -87.73,
          42.0145
        ]
      },
      "properties": {
        "id": "R3",
        "name": "American Heartland Ice Arena",
        "short_name": "Heartland Ice Arena",
        "address": "7384 Lincoln Ave, Lincolnwood, IL 60712",
        "type": "rink"
      }
    },
    {
      "type": "Feature",
      "geometry": {
        "type": "Point",
        "coordinates": [
          -87.8896,
          41.6005
        ]
      },
      "properties": {
        "id": "R4",
        "name": "Arctic Ice Arena",
        "short_name": "Arctic",
        "address": "10700 W 160th St, Orland Park, IL 60467",
        "type": "rink"
      }
    },
    {
      "type": "Feature",
      "geometry": {
        "type": "Point",
        "coordinates": [
          -88.1305,
          42.1509
        ]
      },
      "properties": {
        "id": "R5",
        "name": "Barrington Ice Arena",
        "short_name": "Barrington",
        "address": "28W205 W Commercial Ave, Barrington, IL 60010",
        "type": "rink"
      }
    },
    {
      "type": "Feature",
      "geometry": {
        "type": "Point",
        "coordinates": [
          -87.6723,
          41.8777
        ]
      },
      "properties": {
        "id": "R6",
        "name": "Blackhawks Ice Center",
        "short_name": "Blackhawks Ice Center",
        "address": "1801 W Jackson Blvd, Chicago, IL 60612",
        "type": "rink"
      }
    },
    {
      "type": "Feature",
      "geometry": {
        "type": "Point",
        "coordinates": [
          -88.2896,
          42.0995
        ]
      },
      "properties": {
        "id": "R7",
        "name": "Canlan Sports Center – West Dundee",
        "short_name": "Canlan West Dundee",
        "address": "801 Wesemann Dr, West Dundee, IL 60118",
        "type": "rink"
      }
    },
    {
      "type": "Feature",
      "geometry": {
        "type": "Point",
        "coordinates": [
          -88.11,
          41.638
        ]
      },
      "properties": {
        "id": "R8",
        "name": "Canlan Sports Romeoville",
        "short_name": "Canlan Romeoville",
        "address": "1581 Normantown Rd, Romeoville, IL 60446",
        "type": "rink"
      }
    },
    {
      "type": "Feature",
      "geometry": {
        "type": "Point",
        "coordinates": [
          -87.819,
          42.201
        ]
      },
      "properties": {
        "id": "R9",
        "name": "Centennial Ice Arena – Highland Park",
        "short_name": "Centennial Ice Arena",
        "address": "3100 Trail Way, Highland Park, IL 60035",
        "type": "rink"
      }
    },
    {
      "type": "Feature",
      "geometry": {
        "type": "Point",
        "coordinates": [
          -88.058,
          41.889
        ]
      },
      "properties": {
        "id": "R10",
        "name": "Center Ice of DuPage",
        "short_name": "Center Ice of DuPage",
        "address": "1N450 Highland Ave, Glen Ellyn, IL 60137",
        "type": "rink"
      }
    },
    {
      "type": "Feature",
      "geometry": {
        "type": "Point",
        "coordinates": [
          -88.319,
          42.242
        ]
      },
      "properties": {
        "id": "R11",
        "name": "Crystal Ice House Arena",
        "short_name": "Crystal Ice House",
        "address": "320 Prairie St, Crystal Lake, IL 60014",
        "type": "rink"
      }
    },
    {
      "type": "Feature",
      "geometry": {
        "type": "Point",
        "coordinates": [
          -87.9814,
          41.7493
        ]
      },
      "properties": {
        "id": "R12",
        "name": "Darien Sports Complex",
        "short_name": "Darien Sports Complex",
        "address": "451 Plainfield Rd, Darien, IL 60561",
        "type": "rink"
      }
    },
    {
      "type": "Feature",
      "geometry": {
        "type": "Point",
        "coordinates": [
          -87.9397,
          41.9593
        ]
      },
      "properties": {
        "id": "R13",
        "name": "Edge on John Ice Arena",
        "short_name": "Edge on John",
        "address": "545 John St, Bensenville, IL 60106",
        "type": "rink"
      }
    },
    {
      "type": "Feature",
      "geometry": {
        "type": "Point",
        "coordinates": [
          -88.2804,
          41.8586
        ]
      },
      "properties": {
        "id": "R14",
        "name": "Fox Valley Ice Rink",
        "short_name": "Fox Valley",
        "address": "1996 S Kirk Rd, Geneva, IL 60134",
        "type": "rink"
      }
    },
    {
      "type": "Feature",
      "geometry": {
        "type": "Point",
        "coordinates": [
          -87.8665,
          41.9475
        ]
      },
      "properties": {
        "id": "R15",
        "name": "Franklin Park Ice Arena",
        "short_name": "Franklin Park",
        "address": "9711 Waveland Ave, Franklin Park, IL 60131",
        "type": "rink"
      }
    },
    {
      "type": "Feature",
      "geometry": {
        "type": "Point",
        "coordinates": [
          -87.9585,
          42.2261
        ]
      },
      "properties": {
        "id": "R16",
        "name": "Glacier Ice Arena",
        "short_name": "Glacier",
        "address": "670 Lakeview Pkwy, Vernon Hills, IL 60061",
        "type": "rink"
      }
    },
    {
      "type": "Feature",
      "geometry": {
        "type": "Point",
        "coordinates": [
          -87.85,
          42.091
        ]
      },
      "properties": {
        "id": "R17",
        "name": "Glenview Community Ice Center",
        "short_name": "Glenview Ice Center",
        "address": "1851 Landwehr Rd, Glenview, IL 60026",
        "type": "rink"
      }
    },
    {
      "type": "Feature",
      "geometry": {
        "type": "Point",
        "coordinates": [
          -88.146,
          41.522
        ]
      },
      "properties": {
        "id": "R18",
        "name": "Inwood Ice Arena",
        "short_name": "Inwood",
        "address": "3000 W Jefferson St, Joliet, IL 60435",
        "type": "rink"
      }
    },
    {
      "type": "Feature",
      "geometry": {
        "type": "Point",
        "coordinates": [
          -87.691,
          41.8812
        ]
      },
      "properties": {
        "id": "R19",
        "name": "Johnny’s Ice House West",
        "short_name": "Johnny’s West",
        "address": "2550 W Madison St, Chicago, IL 60612",
        "type": "rink"
      }
    },
    {
      "type": "Feature",
      "geometry": {
        "type": "Point",
        "coordinates": [
          -87.8691,
          42.2405
        ]
      },
      "properties": {
        "id": "R20",
        "name": "MacKenzie Ice Arena (LFA)",
        "short_name": "MacKenzie Ice Arena",
        "address": "1500 Kennedy Rd, Lake Forest, IL 60045",
        "type": "rink"
      }
    },
    {
      "type": "Feature",
      "geometry": {
        "type": "Point",
        "coordinates": [
          -87.68,
          41.6835
        ]
      },
      "properties": {
        "id": "R21",
        "name": "Morgan Park Sports Center",
        "short_name": "Morgan Park",
        "address": "11505 S Western Ave, Chicago, IL 60643",
        "type": "rink"
      }
    },
    {
      "type": "Feature",
      "geometry": {
        "type": "Point",
        "coordinates": [
          -87.94,
          42.0834
        ]
      },
      "properties": {
        "id": "R22",
        "name": "Mount Prospect Ice Arena",
        "short_name": "Mount Prospect",
        "address": "1501 Feehanville Dr, Mount Prospect, IL 60056",
        "type": "rink"
      }
    },
    {
      "type": "Feature",
      "geometry": {
        "type": "Point",
        "coordinates": [
          -87.831,
          42.132
        ]
      },
      "properties": {
        "id": "R23",
        "name": "North Shore Ice Arena",
        "short_name": "North Shore",
        "address": "2111 Founders Dr, Northbrook, IL 60062",
        "type": "rink"
      }
    },
    {
      "type": "Feature",
      "geometry": {
        "type": "Point",
        "coordinates": [
          -87.737,
          41.7225
        ]
      },
      "properties": {
        "id": "R24",
        "name": "Oak Lawn Ice Arena",
        "short_name": "Oak Lawn",
        "address": "9320 S Kenton Ave, Oak Lawn, IL 60453",
        "type": "rink"
      }
    },
    {
      "type": "Feature",
      "geometry": {
        "type": "Point",
        "coordinates": [
          -87.859,
          42.026
        ]
      },
      "properties": {
        "id": "R25",
        "name": "Oakton Ice Arena",
        "short_name": "Oakton",
        "address": "2800 Oakton St, Park Ridge, IL 60068",
        "type": "rink"
      }
    },
    {
      "type": "Feature",
      "geometry": {
        "type": "Point",
        "coordinates": [
          -88.043,
          42.101
        ]
      },
      "properties": {
        "id": "R26",
        "name": "Orbit Ice Arena",
        "short_name": "Orbit",
        "address": "615 S Consumers Ave, Palatine, IL 60074",
        "type": "rink"
      }
    },
    {
      "type": "Feature",
      "geometry": {
        "type": "Point",
        "coordinates": [
          -87.933,
          42.532
        ]
      },
      "properties": {
        "id": "R27",
        "name": "Pleasant Prairie RecPlex",
        "short_name": "Pleasant Prairie",
        "address": "9900 Terwall Terrace, Pleasant Prairie, WI 53158",
        "type": "rink"
      }
    },
    {
      "type": "Feature",
      "geometry": {
        "type": "Point",
        "coordinates": [
          -87.699,
          42.0332
        ]
      },
      "properties": {
        "id": "R28",
        "name": "Robert Crown Community Center",
        "short_name": "Robert Crown",
        "address": "1801 Main St, Evanston, IL 60202",
        "type": "rink"
      }
    },
    {
      "type": "Feature",
      "geometry": {
        "type": "Point",
        "coordinates": [
          -88.082,
          41.7005
        ]
      },
      "properties": {
        "id": "R29",
        "name": "Rocket Ice Skating Rink",
        "short_name": "Rocket Ice",
        "address": "180 Canterbury Ln, Bolingbrook, IL 60440",
        "type": "rink"
      }
    },
    {
      "type": "Feature",
      "geometry": {
        "type": "Point",
        "coordinates": [
          -87.873,
          41.994
        ]
      },
      "properties": {
        "id": "R30",
        "name": "Rosemont Ice Arena",
        "short_name": "Rosemont",
        "address": "7115 Barry St, Rosemont, IL 60018",
        "type": "rink"
      }
    },
    {
      "type": "Feature",
      "geometry": {
        "type": "Point",
        "coordinates": [
          -88.124,
          42.052
        ]
      },
      "properties": {
        "id": "R31",
        "name": "Scott R. Triphahn Community Center",
        "short_name": "Triphahn Center",
        "address": "1685 W Higgins Rd, Hoffman Estates, IL 60169",
        "type": "rink"
      }
    },
    {
      "type": "Feature",
      "geometry": {
        "type": "Point",
        "coordinates": [
          -88.071,
          41.768
        ]
      },
      "properties": {
        "id": "R32",
        "name": "Seven Bridges Ice Arena",
        "short_name": "Seven Bridges",
        "address": "6690 IL-53, Woodridge, IL 60517",
        "type": "rink"
      }
    },
    {
      "type": "Feature",
      "geometry": {
        "type": "Point",
        "coordinates": [
          -87.756,
          41.659
        ]
      },
      "properties": {
        "id": "R33",
        "name": "Southwest Ice Arena",
        "short_name": "Southwest",
        "address": "5505 W 127th St, Crestwood, IL 60418",
        "type": "rink"
      }
    },
    {
      "type": "Feature",
      "geometry": {
        "type": "Point",
        "coordinates": [
          -87.929,
          41.9516
        ]
      },
      "properties": {
        "id": "R34",
        "name": "The Edge Ice Arena",
        "short_name": "The Edge",
        "address": "735 E Jefferson St, Bensenville, IL 60106",
        "type": "rink"
      }
    },
    {
      "type": "Feature",
      "geometry": {
        "type": "Point",
        "coordinates": [
          -87.94,
          42.37
        ]
      },
      "properties": {
        "id": "R35",
        "name": "Top Shelf Ice Arena",
        "short_name": "Top Shelf",
        "address": "6152 W Grand Ave, Gurnee, IL 60031",
        "type": "rink"
      }
    },
    {
      "type": "Feature",
      "geometry": {
        "type": "Point",
        "coordinates": [
          -87.8874,
          42.0037
        ]
      },
      "properties": {
        "id": "H1",
        "name": "Holiday Inn Express & Suites Chicago O'Hare Airport",
        "short_name": "Holiday Inn Express & Suites Chicago O'Hare Airport",
        "address": "3001 Mannheim Rd, Des Plaines, IL 60018",
        "type": "hotel",
        "free_parking_breakfast": false
      }
    },
    {
      "type": "Feature",
      "geometry": {
        "type": "Point",
        "coordinates": [
          -88.0178,
          41.9922
        ]
      },
      "properties": {
        "id": "H2",
        "name": "Country Inn & Suites by Radisson, Elk Grove Village/Itasca",
        "short_name": "Country Inn & Suites by Radisson, Elk Grove Village/Itasca",
        "address": "1160 W Devon Ave, Elk Grove Village, IL 60007",
        "type": "hotel",
        "free_parking_breakfast": true
      }
    },
    {
      "type": "Feature",
      "geometry": {
        "type": "Point",
        "coordinates": [
          -88.0196,
          41.9877
        ]
      },
      "properties": {
        "id": "H3",
        "name": "The Westin Chicago Northwest",
        "short_name": "The Westin Chicago Northwest",
        "address": "400 Park Blvd, Itasca, IL 60143",
        "type": "hotel",
        "free_parking_breakfast": false
      }
    },
    {
      "type": "Feature",
      "geometry": {
        "type": "Point",
        "coordinates": [
          -87.8616,
          41.9807
        ]
      },
      "properties": {
        "id": "H4",
        "name": "Hyatt Regency O'Hare Chicago",
        "short_name": "Hyatt Regency O'Hare Chicago",
        "address": "9300 W Bryn Mawr Ave, Rosemont, IL 60018",
        "type": "hotel",
        "free_parking_breakfast": false
      }
    },
    {
      "type": "Feature",
      "geometry": {
        "type": "Point",
        "coordinates": [
          -88.0047,
          42.0035
        ]
      },
      "properties": {
        "id": "H5",
        "name": "Hyatt Place Itasca",
        "short_name": "Hyatt Place Itasca",
        "address": "1150 N Arlington Heights Rd, Itasca, IL 60143",
        "type": "hotel",
        "free_parking_breakfast": true
      }
    },
    {
      "type": "Feature",
      "geometry": {
        "type": "Point",
        "coordinates": [
          -87.8292,
          41.9866
        ]
      },
      "properties": {
        "id": "H6",
        "name": "SpringHill Suites Chicago O'Hare by Marriott",
        "short_name": "SpringHill Suites Chicago O'Hare by Marriott",
        "address": "8101 W Higgins Rd, Chicago, IL 60631",
        "type": "hotel",
        "free_parking_breakfast": true
      }
    },
    {
      "type": "Feature",
      "geometry": {
        "type": "Point",
        "coordinates": [
          -87.9608,
          41.9109
        ]
      },
      "properties": {
        "id": "H7",
        "name": "Courtyard Chicago Elmhurst/Oakbrook Area",
        "short_name": "Courtyard Chicago Elmhurst/Oakbrook Area",
        "address": "370 N IL Route 83, Elmhurst, IL 60126",
        "type": "hotel",
        "free_parking_breakfast": false
      }
    },
    {
      "type": "Feature",
      "geometry": {
        "type": "Point",
        "coordinates": [
          -87.9828,
          41.9865
        ]
      },
      "properties": {
        "id": "H8",
        "name": "DoubleTree by Hilton Hotel Chicago Wood Dale - Elk Grove",
        "short_name": "DoubleTree by Hilton Hotel Chicago Wood Dale - Elk Grove",
        "address": "1200 N Mittel Blvd, Wood Dale, IL 60191",
        "type": "hotel",
        "free_parking_breakfast": false
      }
    },
    {
      "type": "Feature",
      "geometry": {
        "type": "Point",
        "coordinates": [
          -87.9789,
          41.9788
        ]
      },
      "properties": {
        "id": "H9",
        "name": "Courtyard by Marriott Chicago Wood Dale",
        "short_name": "Courtyard by Marriott Chicago Wood Dale",
        "address": "900 N Wood Dale Rd, Wood Dale, IL 60191",
        "type": "hotel",
        "free_parking_breakfast": false
      }
    }
  ]
}